[{"id":1,"name":"Ailane","zipcode":"26575","distance":4.0},
{"id":2,"name":"Flashspan","zipcode":"66848","distance":6.2},
{"id":3,"name":"Gabspot","zipcode":"20087","distance":9.7},
{"id":4,"name":"Buzzdog","zipcode":"22959","distance":8.5},
{"id":5,"name":"Youtags","zipcode":"14168","distance":9.2},
{"id":6,"name":"Myworks","zipcode":"15640","distance":4.7},
{"id":7,"name":"Skivee","zipcode":"06884","distance":5.9},
{"id":8,"name":"Buzzdog","zipcode":"96413","distance":4.1},
{"id":9,"name":"Jazzy","zipcode":"43971","distance":7.5},
{"id":10,"name":"Wordware","zipcode":"19127","distance":1.8},
{"id":11,"name":"Oyoloo","zipcode":"25834","distance":1.5},
{"id":12,"name":"Podcat","zipcode":"56047","distance":2.4},
{"id":13,"name":"Oyoyo","zipcode":"13713","distance":3.6},
{"id":14,"name":"Wikizz","zipcode":"54175","distance":2.0},
{"id":15,"name":"Reallinks","zipcode":"13528","distance":6.7},
{"id":16,"name":"Linkbuzz","zipcode":"88831","distance":4.0},
{"id":17,"name":"Browseblab","zipcode":"31059","distance":3.0},
{"id":18,"name":"Meezzy","zipcode":"66604","distance":5.9},
{"id":19,"name":"Flashset","zipcode":"66824","distance":5.2},
{"id":20,"name":"Yadel","zipcode":"43708","distance":8.0},
{"id":21,"name":"Devbug","zipcode":"97346","distance":2.3},
{"id":22,"name":"Quire","zipcode":"08605","distance":3.2},
{"id":23,"name":"Quinu","zipcode":"53231","distance":8.3},
{"id":24,"name":"Rhynyx","zipcode":"58378","distance":8.9},
{"id":25,"name":"Leenti","zipcode":"22818","distance":1.5},
{"id":26,"name":"Flashset","zipcode":"43649","distance":1.1},
{"id":27,"name":"Skynoodle","zipcode":"26235","distance":1.7},
{"id":28,"name":"Rooxo","zipcode":"56476","distance":6.8},
{"id":29,"name":"Ntags","zipcode":"39181","distance":4.5},
{"id":30,"name":"Skipfire","zipcode":"82915","distance":1.3},
{"id":31,"name":"Skinte","zipcode":"95206","distance":8.7},
{"id":32,"name":"Twimbo","zipcode":"91353","distance":4.5},
{"id":33,"name":"Shufflester","zipcode":"32880","distance":3.1},
{"id":34,"name":"Fiveclub","zipcode":"68078","distance":7.0},
{"id":35,"name":"Voonte","zipcode":"83311","distance":5.3},
{"id":36,"name":"Meedoo","zipcode":"81721","distance":3.1},
{"id":37,"name":"Quimba","zipcode":"94025","distance":5.4},
{"id":38,"name":"Mydo","zipcode":"28745","distance":2.1},
{"id":39,"name":"Dazzlesphere","zipcode":"96940","distance":4.7},
{"id":40,"name":"Eayo","zipcode":"24243","distance":9.3},
{"id":41,"name":"Riffwire","zipcode":"84178","distance":1.7},
{"id":42,"name":"Skynoodle","zipcode":"46901","distance":9.4},
{"id":43,"name":"Twinder","zipcode":"08171","distance":1.9},
{"id":44,"name":"Skajo","zipcode":"16036","distance":5.4},
{"id":45,"name":"Einti","zipcode":"74557","distance":6.6},
{"id":46,"name":"Rooxo","zipcode":"88369","distance":9.4},
{"id":47,"name":"Oozz","zipcode":"15429","distance":4.7},
{"id":48,"name":"Twinte","zipcode":"07475","distance":8.7},
{"id":49,"name":"Youspan","zipcode":"41975","distance":2.0},
{"id":50,"name":"Ntag","zipcode":"24007","distance":6.0},
{"id":51,"name":"Topicstorm","zipcode":"16447","distance":8.8},
{"id":52,"name":"Oyoyo","zipcode":"15591","distance":3.4},
{"id":53,"name":"Twinte","zipcode":"54790","distance":4.8},
{"id":54,"name":"Ntag","zipcode":"14999","distance":1.6},
{"id":55,"name":"Gabspot","zipcode":"00482","distance":3.2},
{"id":56,"name":"Babbleblab","zipcode":"06768","distance":7.4},
{"id":57,"name":"Flashpoint","zipcode":"98881","distance":6.5},
{"id":58,"name":"Quatz","zipcode":"87735","distance":7.9},
{"id":59,"name":"Flipbug","zipcode":"49258","distance":6.7},
{"id":60,"name":"Twimm","zipcode":"62586","distance":5.7},
{"id":61,"name":"Ainyx","zipcode":"56591","distance":6.7},
{"id":62,"name":"Browsebug","zipcode":"53754","distance":9.3},
{"id":63,"name":"Meembee","zipcode":"75655","distance":5.5},
{"id":64,"name":"Trudeo","zipcode":"19074","distance":9.3},
{"id":65,"name":"Realbridge","zipcode":"66796","distance":6.0},
{"id":66,"name":"Kare","zipcode":"94296","distance":5.5},
{"id":67,"name":"Wikizz","zipcode":"70562","distance":8.3},
{"id":68,"name":"LiveZ","zipcode":"61091","distance":6.6},
{"id":69,"name":"Aimbo","zipcode":"21623","distance":3.9},
{"id":70,"name":"Flashset","zipcode":"80109","distance":5.5},
{"id":71,"name":"Dynava","zipcode":"31164","distance":5.5},
{"id":72,"name":"Bluezoom","zipcode":"54786","distance":6.0},
{"id":73,"name":"Cogidoo","zipcode":"90168","distance":2.2},
{"id":74,"name":"Trudoo","zipcode":"15805","distance":5.7},
{"id":75,"name":"Oozz","zipcode":"42840","distance":3.7},
{"id":76,"name":"Fanoodle","zipcode":"08541","distance":1.5},
{"id":77,"name":"Agivu","zipcode":"89388","distance":3.3},
{"id":78,"name":"Dabjam","zipcode":"89088","distance":8.6},
{"id":79,"name":"Vimbo","zipcode":"27013","distance":3.8},
{"id":80,"name":"Gigashots","zipcode":"70148","distance":4.5},
{"id":81,"name":"Geba","zipcode":"90108","distance":9.1},
{"id":82,"name":"Yozio","zipcode":"51255","distance":2.1},
{"id":83,"name":"Cogilith","zipcode":"50348","distance":8.3},
{"id":84,"name":"Fanoodle","zipcode":"70287","distance":5.5},
{"id":85,"name":"Mymm","zipcode":"63718","distance":8.7},
{"id":86,"name":"Quinu","zipcode":"99445","distance":4.1},
{"id":87,"name":"Thoughtworks","zipcode":"13075","distance":6.8},
{"id":88,"name":"Meemm","zipcode":"24642","distance":8.6},
{"id":89,"name":"Eayo","zipcode":"31539","distance":1.4},
{"id":90,"name":"Eamia","zipcode":"85601","distance":3.4},
{"id":91,"name":"Aimbo","zipcode":"69203","distance":5.5},
{"id":92,"name":"Dabshots","zipcode":"41127","distance":7.0},
{"id":93,"name":"Tambee","zipcode":"15494","distance":8.0},
{"id":94,"name":"Yakijo","zipcode":"22759","distance":8.1},
{"id":95,"name":"Tanoodle","zipcode":"08759","distance":4.3},
{"id":96,"name":"Oyoloo","zipcode":"46918","distance":6.2},
{"id":97,"name":"Reallinks","zipcode":"38029","distance":4.0},
{"id":98,"name":"Trupe","zipcode":"49805","distance":9.8},
{"id":99,"name":"Eire","zipcode":"21775","distance":7.1},
{"id":100,"name":"Buzzster","zipcode":"75387","distance":6.2}]